#aV2022  4 19  0  0  0.00000000     288 DD+AD WGS84 FIT  NGA
## 2206 172800.00000000   300.00000000 59688 0.0000000000000
+   32     1  2  3  4  5  6  7  8  9 10 11 12 13 14 15 16 17
+         18 19 20 21 22 23 24 25 26 27 28 29 30 31 32  0  0
+          0  0  0  0  0  0  0  0  0  0  0  0  0  0  0  0  0
+          0  0  0  0  0  0  0  0  0  0  0  0  0  0  0  0  0
+          0  0  0  0  0  0  0  0  0  0  0  0  0  0  0  0  0
++         2  2  2  2  2  2  2  2  2  2  2  2  2  2  2  2  2
++         2  2  2  2  2  2  2  2  2  2  2  2  2  2  2  0  0
++         0  0  0  0  0  0  0  0  0  0  0  0  0  0  0  0  0
++         0  0  0  0  0  0  0  0  0  0  0  0  0  0  0  0  0
++         0  0  0  0  0  0  0  0  0  0  0  0  0  0  0  0  0
%c cc cc ccc ccc cccc cccc cccc cccc ccccc ccccc ccccc ccccc
%c cc cc ccc ccc cccc cccc cccc cccc ccccc ccccc ccccc ccccc
%f  0.0000000  0.000000000  0.00000000000  0.000000000000000
%f  0.0000000  0.000000000  0.00000000000  0.000000000000000
%i    0    0    0    0      0      0      0      0         0
%i    0    0    0    0      0      0      0      0         0
/*      NGA, ST. LOUIS,MO.                                  
/*   EPHEMERIS COMPUTED FROM 2 DAYS OF DATA                 
/*   EPOCHA v7 SMOOTHER                                     
/*   G2139 IERS2010 SATIGS SATAPC                           
*  2022  4 19  0 15  0.00000000
P  1  11936.174304  13286.625987 -20068.141162    381.899739                    
V  1 -24662.913271    509.091575 -14202.069101     -0.086513                    
P  2  11694.213344 -14589.582041  19574.309064   -653.166267                    
V  2  23410.556137   -991.154511 -15100.542038     -0.001694                    
P  3  12858.361410  23290.951437  -1092.301909   -212.131747                    
V  3  -2642.899779    101.821833 -31909.946510     -0.151401                    
P  4   4076.504951  18375.230151  18714.118865   -174.770169                    
V  4 -13679.259417  19501.933364 -16259.043030      0.031641                    
P  5  -1862.496853 -21854.232652  14709.649838    -78.799082                    
V  5  12202.515658  14765.631236  23374.607642     -0.013741                    
P  6  24389.514148  -5947.941555   8864.371859    271.735935                    
V  6  11116.975334   1693.010066 -29588.497303      0.137932                    
P  7  24569.019018   6365.596004   9038.298365    320.565693                    
V  7 -10787.701605   2396.554063  28419.295571      0.010339                    
P  8  -3220.164279  23369.330018 -11882.656008    -64.512781                    
V  8  -9421.253556  12140.516239  26857.062969     -0.016112                    
P  9  12816.500615   8484.570731  21593.023369   -342.804753                    
V  9 -13287.100983  24193.886965  -1645.239738      0.025216                    
P 10 -17168.923475  -2132.155088 -20088.270548   -383.992738                    
V 10 -12378.313403 -22557.104400  12596.418413     -0.130101                    
P 11  12504.135453 -12992.216850  19492.908897    -37.728728                    
V 11  24671.796447   2394.733375 -14241.159469      0.066728                    
P 12  -8702.011743 -24768.695240  -4707.902513   -202.463510                    
V 12   4605.223289   3981.444661 -31126.300768     -0.058185                    
P 13  12294.099523 -22754.198619  -5789.341084    296.596049                    
V 13   6419.332937  -4146.321632  30895.422920      0.066743                    
P 14  17630.032353   3357.753820 -19609.801519   -103.436743                    
V 14  10680.450151  22518.759833  13379.751702     -0.026069                    
P 15   -467.551222 -23486.057082 -12498.792483    -67.872271                    
V 15   8799.691756 -13066.967170  25365.690670      0.029402                    
P 16  -4160.905920  19149.432499  17432.702024   -493.002331                    
V 16 -11462.437044 -19837.669194  19211.084773     -0.037583                    
P 17  18748.274160  -8799.677130 -16231.570525    602.100764                    
V 17 -10317.386237  18770.360351 -21477.331786      0.047916                    
P 18 -24207.988163  -6417.779930   8996.469787    192.057388                    
V 18  11411.791137  -2051.065110  29118.084648     -0.095492                    
P 19  19511.153950 -13896.409952 -11516.339563    146.186914                    
V 19  -6671.038284  12772.322295 -27527.043605      0.049827                    
P 20   5820.891578 -16155.319286  20319.036278    515.762348                    
V 20  17174.272486  19285.680573  10181.904714     -0.001825                    
P 21    782.547271  14901.816352 -21312.990800    160.552587                    
V 21 -28563.168150   2147.604696   1090.343457      0.002920                    
P 22 -18457.036130  16884.365287  -8238.258522    245.550108                    
V 22   3893.808055 -10752.810063 -29482.711708      0.060179                    
P 23 -19021.088398 -12663.361116 -13631.523746    -15.959115                    
V 23  -7503.966375 -15645.969305  24923.958315     -0.028178                    
P 24  -8012.926294 -14802.399453 -20916.529572    254.628585                    
V 24  25751.190469  -2907.054290  -7508.041907     -0.053852                    
P 25 -17342.524021 -18764.381020   7465.497760    313.765983                    
V 25  -2799.068910  -9744.366678 -29569.199885      0.049689                    
P 26 -12162.344188   9946.333444  21315.415728    199.618497                    
V 26 -15456.164551 -22594.742337   2024.631867      0.027660                    
P 27 -12223.777600  23311.817553  -1208.896384    186.233245                    
V 27  -3058.239520   -237.852770  32229.098650      0.087087                    
P 28  13615.078569  -5828.140591 -21532.210425    369.962523                    
V 28  11996.982841  25919.488742    779.984015     -0.041804                    
P 29 -10898.204731 -10121.324971  21950.178486   -504.562057                    
V 29  15736.467029 -23087.254229  -2884.362959     -0.041658                    
P 30  26698.470003    243.153136      5.143027   -524.379040                    
V 30     55.084863   3367.695199  31044.004019     -0.016939                    
P 31 -23431.097334   7189.476074  10672.581082   -174.012939                    
V 31 -13556.338530  -2487.634779 -27294.468665     -0.016621                    
P 32 -18454.950052  11327.221267 -15107.639402   -108.372413                    
V 32   7518.141793 -18157.854348 -22769.782335     -0.081461                    
EOF
